#aV2007  6 13  0  0   .00000000      96 DD+AD WGS84 FIT  NGA
## 1431 259200.00000000   900.00000000 54264  .0000000000000
+   30     1  2  3  4  5  6  7  8  9 10 11 12 13 14 16 17 18
+         19 20 21 22 23 24 25 26 27 28 29 30 31  0  0  0  0
+          0  0  0  0  0  0  0  0  0  0  0  0  0  0  0  0  0
+          0  0  0  0  0  0  0  0  0  0  0  0  0  0  0  0  0
+          0  0  0  0  0  0  0  0  0  0  0  0  0  0  0  0  0
++         0  0  0  0  0  0  0  0  0  0  0  0  0  0  0  0  0
++         0  0  0  0  0  0  0  0  0  0  0  0  0  0  0  0  0
++         0  0  0  0  0  0  0  0  0  0  0  0  0  0  0  0  0
++         0  0  0  0  0  0  0  0  0  0  0  0  0  0  0  0  0
++         0  0  0  0  0  0  0  0  0  0  0  0  0  0  0  0  0
%c cc cc ccc ccc cccc cccc cccc cccc ccccc ccccc ccccc ccccc
%c cc cc ccc ccc cccc cccc cccc cccc ccccc ccccc ccccc ccccc
%f  0.0000000  0.000000000  0.00000000000  0.000000000000000
%f  0.0000000  0.000000000  0.00000000000  0.000000000000000
%i    0    0    0    0      0      0      0      0         0
%i    0    0    0    0      0      0      0      0         0
/*      NGA, ST. LOUIS,MO.                                  
/*   EPHEMERIS COMPUTED FROM  3 DAYS OF DATA                
/* CCCCCCCCCCCCCCCCCCCCCCCCCCCCCCCCCCCCCCCCCCCCCCCCCCCCCCCCC
/* CCCCCCCCCCCCCCCCCCCCCCCCCCCCCCCCCCCCCCCCCCCCCCCCCCCCCCCCC
*  2007  6 13  5 15   .00000000                                                 
P  1  21576.430523  15246.581671   3237.026771    133.850988                    
V  1  -4213.280546   -413.288967  32007.289501       .021184                    
P  2 -13444.769186 -14907.346410 -17740.899408    113.812394                    
V  2    686.866633 -22103.014857  17979.096917       .028287                    
P  3  24796.475884  10018.453392     94.614863     71.526967                    
V  3  -1034.245263   3505.995676 -30735.577201       .054360                    
P  4  -7357.777657 -23555.440924  -9394.989964      9.787729                    
V  4   2929.021239 -12052.858264  28472.469778      -.007999                    
P  5 -21301.246823  15707.614825    488.067397     44.673825                    
V  5  -1465.815995  -3431.231446  31376.078682       .523902                    
P  6 -10843.798888  11971.068106 -20898.811381    212.675296                    
V  6 -24128.822749 -12313.288882   5375.025742       .100674                    
P  7  -6902.767621  14012.760922 -21134.167266    258.047551                    
V  7 -25294.506902 -11430.996443    610.256027      -.186406                    
P  8    588.244033 -26306.559079   -540.386238   -110.874576                    
V  8   2618.433489    577.788501 -32436.028963      -.014450                    
P  9 -14049.542650   6370.492468  20994.731719     74.308210                    
V  9  -2845.784823 -27955.324471   6612.246677       .015320                    
P 10 -18810.090409  -3689.229254 -18635.657823    103.258741                    
V 10  19409.126130 -12921.070337 -16828.704247       .005244                    
P 11  14583.778279  -9093.496753  20095.200562     18.263486                    
V 11   6614.575872  25295.173297   6905.263620       .008674                    
P 12 -23662.923307  11069.742292   4707.386884    -46.700863                    
V 12   3466.911102  -5471.410876  31061.594549      -.008963                    
P 13   8894.041689 -11594.965333 -22281.955790    181.011666                    
V 13  24158.037424  14047.178180   2380.374080       .033328                    
P 14  10812.276054  18188.674590  16184.053796     24.696378                    
V 14 -18370.625738  -8754.201294  22142.772478       .018355                    
P 16  14067.666397   8391.984979 -20853.147741    155.184601                    
V 16 -22355.020145  14493.044895  -9059.335141       .028025                    
P 17  -8464.850267 -18331.140437  17339.573219     64.835231                    
V 17  20117.411923   8907.865180  19127.067703      -.013271                    
P 18 -12836.012566  18645.261998  13748.939526   -247.503617                    
V 18 -16352.168672   6431.221120 -24572.085971       .010271                    
P 19  23667.448501   5426.091344  11006.677987     42.309192                    
V 19  10489.202076   9270.706637 -27261.191617       .031705                    
P 20  23190.024727 -12557.353974   2909.441443    -25.587243                    
V 20  -1533.143707   4680.779513  31302.149972      -.004341                    
P 21  -6098.768178  24023.363228  -8569.533705     77.882478                    
V 21  -3772.208562 -11234.706166 -28981.814759       .003304                    
P 22   -779.198319  17170.719239  20392.080600    186.403823                    
V 22 -22811.436575  11664.485552 -10809.347319       .016390                    
P 23  18528.367972  -4629.583090 -18630.230555    173.408814                    
V 23  20110.850215  11986.432849  16895.431280       .029072                    
P 24 -12546.949114  15489.632041 -17488.298084      7.089160                    
V 24  -1338.149879 -22533.881272 -18495.289622       .029466                    
P 25   8226.724440 -19812.977528 -15391.451525    312.950272                    
V 25   4661.081415  19706.671939 -22196.731397       .217543                    
P 26 -24272.449330  -8314.041698   7477.644867   -247.451118                    
V 26  -7941.136141  -6112.555779 -30196.108533      -.214270                    
P 27   3844.905709 -24321.431302  -9000.189271    116.312795                    
V 27   4012.446233  12069.576859 -29085.653386       .021627                    
P 28   4331.672314 -18134.384533  19121.554375      -.873056                    
V 28  21087.904573 -10892.515723 -15720.589362      -.008717                    
P 29 -24534.738876 -10029.281211   3925.317662      3.692749                    
V 29  -3394.675058  -3557.016812 -31609.882651       .003907                    
P 30 -18734.466786  17909.086021  -5841.184217     36.488292                    
V 30  -7641.767427   1336.476078  30325.104265       .010308                    
P 31   8172.223945  22931.079910 -10339.419245     18.037438                    
V 31  -1949.975243  13533.011479  28016.711241      -.007434                    
EOF
